     3.03           N: GNSS NAV DATA    G: GPS              RINEX VERSION / TYPE
sbf2rin-12.3.1                          20180727 120838 UTC PGM / RUN BY / DATE 
GPSA   4.6566E-09  1.4901E-08 -5.9605E-08 -5.9605E-08       IONOSPHERIC CORR    
GPSB   7.9872E+04  6.5536E+04 -6.5536E+04 -3.9322E+05       IONOSPHERIC CORR    
GPUT -8.1490725279E-10 5.329070518E-15 362704 2011          TIME SYSTEM CORR    
    18                                                      LEAP SECONDS        
                                                            END OF HEADER       
G08 2018 07 26 13 59 44-1.094862818718E-04-1.364242052659E-12 0.000000000000E+00
     1.000000000000E+01 9.406250000000E+00 4.736268713174E-09 2.221072044246E+00
     6.724148988724E-07 3.447163035162E-03 8.866190910339E-07 5.153600746155E+03
     3.959840000000E+05 1.229345798492E-07 1.466219803449E+00 1.303851604462E-07
     9.692162294834E-01 3.660937500000E+02-3.995306648216E-01-8.410350324849E-09
    -1.535778257043E-11 1.000000000000E+00 2.011000000000E+03 0.000000000000E+00
     2.000000000000E+00 0.000000000000E+00 5.122274160385E-09 1.000000000000E+01
     3.888180000000E+05 4.000000000000E+00
G07 2018 07 26 13 59 44 1.524621620774E-04-6.366462912410E-12 0.000000000000E+00
     1.400000000000E+01 4.718750000000E+00 4.483401037363E-09-9.544620672105E-01
     3.855675458908E-07 1.196247257758E-02 9.128823876381E-06 5.153650678635E+03
     3.959840000000E+05 2.719461917877E-07-5.977385110082E-01 1.434236764908E-07
     9.580715747267E-01 1.986250000000E+02-2.508675026762E+00-7.912115285646E-09
    -3.632294156774E-10 1.000000000000E+00 2.011000000000E+03 0.000000000000E+00
     2.000000000000E+00 0.000000000000E+00-1.117587089539E-08 1.400000000000E+01
     3.888180000000E+05 4.000000000000E+00
G15 2018 07 26 14 00 00-3.499398007989E-04 7.958078640513E-13 0.000000000000E+00
     1.270000000000E+02 1.100000000000E+01 5.608447900081E-09 1.004565193018E+00
     7.059425115585E-07 1.041419932153E-02 4.809349775314E-06 5.153773450851E+03
     3.960000000000E+05-1.415610313416E-07-1.747789324132E+00 6.705522537231E-08
     9.277500388902E-01 2.706250000000E+02 6.900829223694E-01-8.625002123101E-09
     3.035840740667E-11 1.000000000000E+00 2.011000000000E+03 0.000000000000E+00
     2.000000000000E+00 0.000000000000E+00-1.071020960808E-08 1.270000000000E+02
     3.888960000000E+05 4.000000000000E+00
G13 2018 07 26 14 00 00-9.191781282425E-05 5.684341886081E-13 0.000000000000E+00
     6.100000000000E+01-3.343750000000E+00 4.672337478753E-09 6.136930019540E-01
    -2.644956111908E-07 3.302313853055E-03 4.958361387253E-06 5.153654901505E+03
     3.960000000000E+05-2.235174179077E-08-1.542825483800E+00-3.166496753693E-08
     9.678496869843E-01 2.864375000000E+02 1.519522341336E+00-8.105694777580E-09
    -5.178787145843E-11 1.000000000000E+00 2.011000000000E+03 0.000000000000E+00
     2.000000000000E+00 0.000000000000E+00-1.117587089539E-08 6.100000000000E+01
     3.897180000000E+05 4.000000000000E+00
G18 2018 07 26 14 00 00 3.824802115560E-05 4.547473508865E-12 0.000000000000E+00
     5.900000000000E+01-1.045937500000E+02 4.764841331910E-09-5.348759731712E-01
    -5.424022674561E-06 1.484764285851E-02 6.847083568573E-06 5.153644222260E+03
     3.960000000000E+05-1.601874828339E-07 2.483339978861E+00 1.173466444016E-07
     9.505536577353E-01 2.415000000000E+02 1.327109455984E+00-8.476067347941E-09
    -2.803688213439E-10 1.000000000000E+00 2.011000000000E+03 0.000000000000E+00
     2.000000000000E+00 0.000000000000E+00-6.519258022308E-09 5.900000000000E+01
     3.901680000000E+05 4.000000000000E+00
G30 2018 07 26 14 00 00 4.575820639729E-05-4.774847184308E-12 0.000000000000E+00
     7.000000000000E+00 8.031250000000E+00 4.771270171125E-09-9.358779737027E-01
     3.054738044739E-07 3.591971122660E-03 9.363517165184E-06 5.153709939957E+03
     3.960000000000E+05 7.450580596924E-08-5.650349568654E-01-2.048909664154E-08
     9.436728927695E-01 1.860937500000E+02-3.009275740734E+00-8.021405552310E-09
    -3.535861568541E-10 1.000000000000E+00 2.011000000000E+03 0.000000000000E+00
     2.000000000000E+00 0.000000000000E+00 3.725290298462E-09 7.000000000000E+00
     3.907380000000E+05 4.000000000000E+00
G11 2018 07 26 14 00 00-7.281959988177E-04 1.932676241267E-12 0.000000000000E+00
     8.000000000000E+01-9.296875000000E+01 6.053109279155E-09-9.469615530926E-01
    -4.727393388748E-06 1.702350843698E-02 3.404915332794E-06 5.153646877289E+03
     3.960000000000E+05-3.054738044739E-07 2.100829060969E+00-2.235174179077E-08
     9.059768454121E-01 2.842812500000E+02 1.787652242823E+00-9.226098589753E-09
    -2.478674675321E-10 1.000000000000E+00 2.011000000000E+03 0.000000000000E+00
     2.000000000000E+00 0.000000000000E+00-1.210719347000E-08 8.000000000000E+01
     3.930360000000E+05 4.000000000000E+00
G01 2018 07 26 14 00 00-6.971461698413E-05-3.979039320257E-12 0.000000000000E+00
     7.200000000000E+01-1.088750000000E+02 4.191603168525E-09-2.913331090905E-01
    -5.749985575676E-06 8.026522817090E-03 7.119029760361E-06 5.153672384262E+03
     3.960000000000E+05-1.862645149231E-09 2.531786398220E+00 8.754432201385E-08
     9.721868221577E-01 2.455000000000E+02 6.685401999314E-01-8.042477858627E-09
    -3.364425856127E-10 1.000000000000E+00 2.011000000000E+03 0.000000000000E+00
     2.000000000000E+00 0.000000000000E+00 5.587935447693E-09 7.200000000000E+01
     3.941880000000E+05 4.000000000000E+00
G27 2018 07 26 13 59 44 3.585326485336E-04-2.501110429876E-12 0.000000000000E+00
     4.000000000000E+00 1.425000000000E+01 4.574476259583E-09 1.886341133863E+00
     7.469207048416E-07 6.005181581713E-03 9.778887033463E-07 5.153686792374E+03
     3.959840000000E+05-1.229345798492E-07 1.475158477220E+00 1.434236764908E-07
     9.774189296503E-01 3.705937500000E+02 4.563604254721E-01-8.311417632477E-09
     9.286101089098E-12 1.000000000000E+00 2.011000000000E+03 0.000000000000E+00
     2.000000000000E+00 0.000000000000E+00 1.862645149231E-09 4.000000000000E+00
     3.945180000000E+05 4.000000000000E+00
G32 2018 07 26 14 00 00-4.667327739298E-04 8.526512829121E-12 0.000000000000E+00
     4.800000000000E+01 5.656250000000E+00 4.861631077877E-09 2.601886977802E+00
     4.228204488754E-07 2.278637839481E-03 4.850327968597E-06 5.153677589417E+03
     3.960000000000E+05-1.490116119385E-08-1.670242591005E+00-5.401670932770E-08
     9.565436021434E-01 2.819062500000E+02-2.525498532008E+00-8.139981920063E-09
     1.460775132862E-10 1.000000000000E+00 2.011000000000E+03 0.000000000000E+00
     2.000000000000E+00 0.000000000000E+00 4.656612873077E-10 4.800000000000E+01
     3.957120000000E+05 4.000000000000E+00
G28 2018 07 26 13 59 44 7.339380681515E-04 2.614797267597E-12 0.000000000000E+00
     0.000000000000E+00 1.260312500000E+02 3.818373336290E-09 2.797420075775E+00
     6.379559636116E-06 1.946275809314E-02 7.109716534615E-06 5.153689077377E+03
     3.959840000000E+05 3.036111593246E-07 5.186058605757E-01-8.195638656616E-08
     9.856144659072E-01 2.511562500000E+02-1.516341363487E+00-7.423523505266E-09
     1.671498196038E-10 1.000000000000E+00 2.011000000000E+03 0.000000000000E+00
     2.000000000000E+00 0.000000000000E+00-1.117587089539E-08 0.000000000000E+00
     3.957660000000E+05 4.000000000000E+00
G08 2018 07 26 16 00 00-1.094960607588E-04-1.364242052659E-12 0.000000000000E+00
     1.100000000000E+01 1.796875000000E+01 4.738768817314E-09-3.009374511111E+00
     1.015141606331E-06 3.448208328336E-03 8.158385753632E-07 5.153598493576E+03
     4.032000000000E+05-5.215406417847E-08 1.466158883151E+00 6.891787052155E-08
     9.692169316841E-01 3.686875000000E+02-3.997072200158E-01-8.310346159274E-09
     9.393248409357E-11 1.000000000000E+00 2.011000000000E+03 0.000000000000E+00
     2.000000000000E+00 0.000000000000E+00 5.122274160385E-09 1.100000000000E+01
     3.960180000000E+05 4.000000000000E+00
G27 2018 07 26 15 59 44 3.585144877434E-04-2.501110429876E-12 0.000000000000E+00
     5.000000000000E+00 1.562500000000E+01 4.501973239542E-09 2.936491849015E+00
     7.580965757370E-07 6.004665046930E-03 7.431954145432E-07 5.153687675476E+03
     4.031840000000E+05-1.117587089539E-07 1.475098832587E+00-2.048909664154E-08
     9.774197049968E-01 3.754687500000E+02 4.563829500217E-01-8.199270103939E-09
     6.035965707914E-11 1.000000000000E+00 2.011000000000E+03 0.000000000000E+00
     2.000000000000E+00 0.000000000000E+00 1.862645149231E-09 5.000000000000E+00
     3.960180000000E+05 4.000000000000E+00
G10 2018 07 26 16 00 00 1.883385702968E-04-6.821210263297E-13 0.000000000000E+00
     5.300000000000E+01-1.331250000000E+01 4.234819254363E-09-1.284388454723E+00
    -7.357448339462E-07 3.661086200736E-03 1.058168709278E-05 5.153667322159E+03
     4.032000000000E+05 7.450580596924E-08-2.712539393456E+00-1.005828380585E-07
     9.617017503495E-01 1.794375000000E+02-2.765264557077E+00-7.688177386305E-09
     4.075169747177E-10 1.000000000000E+00 2.011000000000E+03 0.000000000000E+00
     2.000000000000E+00 0.000000000000E+00 1.862645149231E-09 5.300000000000E+01
     3.960180000000E+05 4.000000000000E+00
G18 2018 07 26 16 00 00 3.828061744571E-05 4.547473508865E-12 0.000000000000E+00
     6.000000000000E+01-1.113125000000E+02 4.860916762409E-09 5.153147089032E-01
    -5.714595317841E-06 1.484627521131E-02 6.714835762978E-06 5.153641586304E+03
     4.032000000000E+05-1.844018697739E-07 2.483279304334E+00 1.117587089539E-08
     9.505514765244E-01 2.488437500000E+02 1.327120571236E+00-8.469638508726E-09
    -3.528718413857E-10 1.000000000000E+00 2.011000000000E+03 0.000000000000E+00
     2.000000000000E+00 0.000000000000E+00-6.519258022308E-09 6.000000000000E+01
     3.960180000000E+05 4.000000000000E+00
